KUIPER-00112            
1 65150U 25171U   26017.25619530 -.00043484  00000+0 -57377-2 0  9995
2 65150  51.9025  23.0349 0007800 355.6420   4.4474 14.79718494 25309
KUIPER-00114            
1 65151U 25171V   26017.26807386 -.00011965  00000+0 -15413-2 0  9999
2 65151  51.8999  42.9855 0003426 321.3973  38.6744 14.79979947 25024
KUIPER-00115            
1 65152U 25171W   26015.45315756  .00029682  00000+0  38953-2 0  9991
2 65152  51.9020  43.5016 0009354 317.5433  42.4805 14.80014574 24861
KUIPER-00116            
1 65153U 25171X   26017.30466257  .00003967  00000+0  54842-3 0  9995
2 65153  51.9010  40.3533 0008632 285.8622  74.1388 14.79983397 25062
KUIPER-00118            
1 65154U 25171Y   26017.30215195  .00003840  00000+0  53253-3 0  9994
2 65154  51.9008  42.8216 0001096   0.3554 359.7409 14.79928929 25039
KUIPER-00119            
1 65155U 25171Z   26017.31524945  .00003191  00000+0  44691-3 0  9997
2 65155  51.9013  30.3441 0007581 320.1046  39.9358 14.79977170 25203
KUIPER-00120            
1 65762U 25217A   26017.14333369  .00003087  00000+0  47094-3 0  9995
2 65762  51.8997 280.2805 0003693 113.7989 246.3359 14.76373937 17113
KUIPER-00132            
1 65763U 25217B   26017.05639018  .00045055  00000+0  11866-2 0  9994
2 65763  51.8613 253.8351 0008299 139.8824 220.2777 15.38053997 17479
