<?xml version="1.0" encoding="UTF-8"?>
<ndm xmlns:xsi="http://www.w3.org/2001/XMLSchema-instance" xsi:noNamespaceSchemaLocation="https://sanaregistry.org/r/ndmxml_unqualified/ndmxml-2.0.0-master-2.0.xsd">
<omm id="CCSDS_OMM_VERS" version="2.0">
<header><CREATION_DATE/><ORIGINATOR/></header><body><segment><metadata><OBJECT_NAME>KUIPER-00112</OBJECT_NAME><OBJECT_ID>2025-171U</OBJECT_ID><CENTER_NAME>EARTH</CENTER_NAME><REF_FRAME>TEME</REF_FRAME><TIME_SYSTEM>UTC</TIME_SYSTEM><MEAN_ELEMENT_THEORY>SGP4</MEAN_ELEMENT_THEORY></metadata><data><meanElements><EPOCH>2026-01-17T06:08:55.273920</EPOCH><MEAN_MOTION>14.79718494</MEAN_MOTION><ECCENTRICITY>.00078006</ECCENTRICITY><INCLINATION>51.9025</INCLINATION><RA_OF_ASC_NODE>23.0349</RA_OF_ASC_NODE><ARG_OF_PERICENTER>355.6420</ARG_OF_PERICENTER><MEAN_ANOMALY>4.4474</MEAN_ANOMALY></meanElements><tleParameters><EPHEMERIS_TYPE>0</EPHEMERIS_TYPE><CLASSIFICATION_TYPE>U</CLASSIFICATION_TYPE><NORAD_CAT_ID>65150</NORAD_CAT_ID><ELEMENT_SET_NO>999</ELEMENT_SET_NO><REV_AT_EPOCH>2530</REV_AT_EPOCH><BSTAR>-.57376578E-2</BSTAR><MEAN_MOTION_DOT>-.43484E-3</MEAN_MOTION_DOT><MEAN_MOTION_DDOT>0</MEAN_MOTION_DDOT></tleParameters></data></segment></body></omm>
<omm id="CCSDS_OMM_VERS" version="2.0">
<header><CREATION_DATE/><ORIGINATOR/></header><body><segment><metadata><OBJECT_NAME>KUIPER-00114</OBJECT_NAME><OBJECT_ID>2025-171V</OBJECT_ID><CENTER_NAME>EARTH</CENTER_NAME><REF_FRAME>TEME</REF_FRAME><TIME_SYSTEM>UTC</TIME_SYSTEM><MEAN_ELEMENT_THEORY>SGP4</MEAN_ELEMENT_THEORY></metadata><data><meanElements><EPOCH>2026-01-17T06:26:01.581504</EPOCH><MEAN_MOTION>14.79979947</MEAN_MOTION><ECCENTRICITY>.00034269</ECCENTRICITY><INCLINATION>51.8999</INCLINATION><RA_OF_ASC_NODE>42.9855</RA_OF_ASC_NODE><ARG_OF_PERICENTER>321.3973</ARG_OF_PERICENTER><MEAN_ANOMALY>38.6744</MEAN_ANOMALY></meanElements><tleParameters><EPHEMERIS_TYPE>0</EPHEMERIS_TYPE><CLASSIFICATION_TYPE>U</CLASSIFICATION_TYPE><NORAD_CAT_ID>65151</NORAD_CAT_ID><ELEMENT_SET_NO>999</ELEMENT_SET_NO><REV_AT_EPOCH>2502</REV_AT_EPOCH><BSTAR>-.15412588E-2</BSTAR><MEAN_MOTION_DOT>-.11965E-3</MEAN_MOTION_DOT><MEAN_MOTION_DDOT>0</MEAN_MOTION_DDOT></tleParameters></data></segment></body></omm>
<omm id="CCSDS_OMM_VERS" version="2.0">
<header><CREATION_DATE/><ORIGINATOR/></header><body><segment><metadata><OBJECT_NAME>KUIPER-00115</OBJECT_NAME><OBJECT_ID>2025-171W</OBJECT_ID><CENTER_NAME>EARTH</CENTER_NAME><REF_FRAME>TEME</REF_FRAME><TIME_SYSTEM>UTC</TIME_SYSTEM><MEAN_ELEMENT_THEORY>SGP4</MEAN_ELEMENT_THEORY></metadata><data><meanElements><EPOCH>2026-01-15T10:52:32.813184</EPOCH><MEAN_MOTION>14.80014574</MEAN_MOTION><ECCENTRICITY>.00093547</ECCENTRICITY><INCLINATION>51.9020</INCLINATION><RA_OF_ASC_NODE>43.5016</RA_OF_ASC_NODE><ARG_OF_PERICENTER>317.5433</ARG_OF_PERICENTER><MEAN_ANOMALY>42.4805</MEAN_ANOMALY></meanElements><tleParameters><EPHEMERIS_TYPE>0</EPHEMERIS_TYPE><CLASSIFICATION_TYPE>U</CLASSIFICATION_TYPE><NORAD_CAT_ID>65152</NORAD_CAT_ID><ELEMENT_SET_NO>999</ELEMENT_SET_NO><REV_AT_EPOCH>2486</REV_AT_EPOCH><BSTAR>.38953401E-2</BSTAR><MEAN_MOTION_DOT>.29682E-3</MEAN_MOTION_DOT><MEAN_MOTION_DDOT>0</MEAN_MOTION_DDOT></tleParameters></data></segment></body></omm>
<omm id="CCSDS_OMM_VERS" version="2.0">
<header><CREATION_DATE/><ORIGINATOR/></header><body><segment><metadata><OBJECT_NAME>KUIPER-00116</OBJECT_NAME><OBJECT_ID>2025-171X</OBJECT_ID><CENTER_NAME>EARTH</CENTER_NAME><REF_FRAME>TEME</REF_FRAME><TIME_SYSTEM>UTC</TIME_SYSTEM><MEAN_ELEMENT_THEORY>SGP4</MEAN_ELEMENT_THEORY></metadata><data><meanElements><EPOCH>2026-01-17T07:18:42.846048</EPOCH><MEAN_MOTION>14.79983397</MEAN_MOTION><ECCENTRICITY>.00086326</ECCENTRICITY><INCLINATION>51.9010</INCLINATION><RA_OF_ASC_NODE>40.3533</RA_OF_ASC_NODE><ARG_OF_PERICENTER>285.8622</ARG_OF_PERICENTER><MEAN_ANOMALY>74.1388</MEAN_ANOMALY></meanElements><tleParameters><EPHEMERIS_TYPE>0</EPHEMERIS_TYPE><CLASSIFICATION_TYPE>U</CLASSIFICATION_TYPE><NORAD_CAT_ID>65153</NORAD_CAT_ID><ELEMENT_SET_NO>999</ELEMENT_SET_NO><REV_AT_EPOCH>2506</REV_AT_EPOCH><BSTAR>.54841781E-3</BSTAR><MEAN_MOTION_DOT>.3967E-4</MEAN_MOTION_DOT><MEAN_MOTION_DDOT>0</MEAN_MOTION_DDOT></tleParameters></data></segment></body></omm>
<omm id="CCSDS_OMM_VERS" version="2.0">
<header><CREATION_DATE/><ORIGINATOR/></header><body><segment><metadata><OBJECT_NAME>KUIPER-00118</OBJECT_NAME><OBJECT_ID>2025-171Y</OBJECT_ID><CENTER_NAME>EARTH</CENTER_NAME><REF_FRAME>TEME</REF_FRAME><TIME_SYSTEM>UTC</TIME_SYSTEM><MEAN_ELEMENT_THEORY>SGP4</MEAN_ELEMENT_THEORY></metadata><data><meanElements><EPOCH>2026-01-17T07:15:05.928480</EPOCH><MEAN_MOTION>14.79928929</MEAN_MOTION><ECCENTRICITY>.00010966</ECCENTRICITY><INCLINATION>51.9008</INCLINATION><RA_OF_ASC_NODE>42.8216</RA_OF_ASC_NODE><ARG_OF_PERICENTER>0.3554</ARG_OF_PERICENTER><MEAN_ANOMALY>359.7409</MEAN_ANOMALY></meanElements><tleParameters><EPHEMERIS_TYPE>0</EPHEMERIS_TYPE><CLASSIFICATION_TYPE>U</CLASSIFICATION_TYPE><NORAD_CAT_ID>65154</NORAD_CAT_ID><ELEMENT_SET_NO>999</ELEMENT_SET_NO><REV_AT_EPOCH>2503</REV_AT_EPOCH><BSTAR>.53253023E-3</BSTAR><MEAN_MOTION_DOT>.384E-4</MEAN_MOTION_DOT><MEAN_MOTION_DDOT>0</MEAN_MOTION_DDOT></tleParameters></data></segment></body></omm>
<omm id="CCSDS_OMM_VERS" version="2.0">
<header><CREATION_DATE/><ORIGINATOR/></header><body><segment><metadata><OBJECT_NAME>KUIPER-00119</OBJECT_NAME><OBJECT_ID>2025-171Z</OBJECT_ID><CENTER_NAME>EARTH</CENTER_NAME><REF_FRAME>TEME</REF_FRAME><TIME_SYSTEM>UTC</TIME_SYSTEM><MEAN_ELEMENT_THEORY>SGP4</MEAN_ELEMENT_THEORY></metadata><data><meanElements><EPOCH>2026-01-17T07:33:57.552480</EPOCH><MEAN_MOTION>14.79977170</MEAN_MOTION><ECCENTRICITY>.00075814</ECCENTRICITY><INCLINATION>51.9013</INCLINATION><RA_OF_ASC_NODE>30.3441</RA_OF_ASC_NODE><ARG_OF_PERICENTER>320.1046</ARG_OF_PERICENTER><MEAN_ANOMALY>39.9358</MEAN_ANOMALY></meanElements><tleParameters><EPHEMERIS_TYPE>0</EPHEMERIS_TYPE><CLASSIFICATION_TYPE>U</CLASSIFICATION_TYPE><NORAD_CAT_ID>65155</NORAD_CAT_ID><ELEMENT_SET_NO>999</ELEMENT_SET_NO><REV_AT_EPOCH>2520</REV_AT_EPOCH><BSTAR>.44690586E-3</BSTAR><MEAN_MOTION_DOT>.3191E-4</MEAN_MOTION_DOT><MEAN_MOTION_DDOT>0</MEAN_MOTION_DDOT></tleParameters></data></segment></body></omm>
<omm id="CCSDS_OMM_VERS" version="2.0">
<header><CREATION_DATE/><ORIGINATOR/></header><body><segment><metadata><OBJECT_NAME>KUIPER-00120</OBJECT_NAME><OBJECT_ID>2025-217A</OBJECT_ID><CENTER_NAME>EARTH</CENTER_NAME><REF_FRAME>TEME</REF_FRAME><TIME_SYSTEM>UTC</TIME_SYSTEM><MEAN_ELEMENT_THEORY>SGP4</MEAN_ELEMENT_THEORY></metadata><data><meanElements><EPOCH>2026-01-17T03:26:24.030816</EPOCH><MEAN_MOTION>14.76373937</MEAN_MOTION><ECCENTRICITY>.00036934</ECCENTRICITY><INCLINATION>51.8997</INCLINATION><RA_OF_ASC_NODE>280.2805</RA_OF_ASC_NODE><ARG_OF_PERICENTER>113.7989</ARG_OF_PERICENTER><MEAN_ANOMALY>246.3359</MEAN_ANOMALY></meanElements><tleParameters><EPHEMERIS_TYPE>0</EPHEMERIS_TYPE><CLASSIFICATION_TYPE>U</CLASSIFICATION_TYPE><NORAD_CAT_ID>65762</NORAD_CAT_ID><ELEMENT_SET_NO>999</ELEMENT_SET_NO><REV_AT_EPOCH>1711</REV_AT_EPOCH><BSTAR>.47093881E-3</BSTAR><MEAN_MOTION_DOT>.3087E-4</MEAN_MOTION_DOT><MEAN_MOTION_DDOT>0</MEAN_MOTION_DDOT></tleParameters></data></segment></body></omm>
<omm id="CCSDS_OMM_VERS" version="2.0">
<header><CREATION_DATE/><ORIGINATOR/></header><body><segment><metadata><OBJECT_NAME>KUIPER-00132</OBJECT_NAME><OBJECT_ID>2025-217B</OBJECT_ID><CENTER_NAME>EARTH</CENTER_NAME><REF_FRAME>TEME</REF_FRAME><TIME_SYSTEM>UTC</TIME_SYSTEM><MEAN_ELEMENT_THEORY>SGP4</MEAN_ELEMENT_THEORY></metadata><data><meanElements><EPOCH>2026-01-17T01:21:12.111552</EPOCH><MEAN_MOTION>15.38053997</MEAN_MOTION><ECCENTRICITY>.00082991</ECCENTRICITY><INCLINATION>51.8613</INCLINATION><RA_OF_ASC_NODE>253.8351</RA_OF_ASC_NODE><ARG_OF_PERICENTER>139.8824</ARG_OF_PERICENTER><MEAN_ANOMALY>220.2777</MEAN_ANOMALY></meanElements><tleParameters><EPHEMERIS_TYPE>0</EPHEMERIS_TYPE><CLASSIFICATION_TYPE>U</CLASSIFICATION_TYPE><NORAD_CAT_ID>65763</NORAD_CAT_ID><ELEMENT_SET_NO>999</ELEMENT_SET_NO><REV_AT_EPOCH>1747</REV_AT_EPOCH><BSTAR>.11866082E-2</BSTAR><MEAN_MOTION_DOT>.45055E-3</MEAN_MOTION_DOT><MEAN_MOTION_DDOT>0</MEAN_MOTION_DDOT></tleParameters></data></segment></body></omm>

</ndm>
